COSMOS 2251 DEB         
1 36079U 93036AYS 17345.04954842  .00002925  00000-0  24899-3 0  9995
2 36079  74.0508 242.9005 0042381 337.1620  22.7678 14.97629948443285
